NORAD_CAT_ID,OBJECT_NAME,OBJECT_TYPE,EPOCH,MEAN_MOTION,ECCENTRICITY,INCLINATION,RA_OF_ASC_NODE,ARG_OF_PERICENTER,MEAN_ANOMALY,BSTAR,MEAN_MOTION_DOT,MEAN_MOTION_DDOT,TLE_LINE0,TLE_LINE1,TLE_LINE2,SEMIMAJOR_AXIS,PERIOD,APOGEE,PERIGEE,DECAYED
50846.0,STARLINK-3308,PAYLOAD,2023-07-27 05:34:02,15.08854451,0.0001236,53.2175,152.9438,96.4868,263.6265,0.0001111,1.481e-05,0.0,0 STARLINK-3308,1 50846U 22001AV  23208.23197339  .00001481  00000-0  11110-3 0  9991,2 50846  53.2175 152.9438 0001236  96.4868 263.6265 15.08854451 87155,6917.836,95.437,540.556,538.846,0.0
50846.0,STARLINK-3308,PAYLOAD,2023-07-27 13:30:59,15.08831504,0.0001326,53.217,151.4554,84.3098,275.8045,1.4101e-05,-6.4e-07,0.0,0 STARLINK-3308,1 50846U 22001AV  23208.56319094 -.00000064  00000-0  14101-4 0  9992,2 50846  53.2170 151.4554 0001326  84.3098 275.8045 15.08831504 85922,6917.906,95.438,540.689,538.854,0.0
50846.0,STARLINK-3308,PAYLOAD,2023-07-27 19:52:32,15.08828727,0.0001526,53.2176,150.2669,83.4541,276.6625,-1.568e-05,-5.37e-06,0.0,0 STARLINK-3308,1 50846U 22001AV  23208.82815585 -.00000537  00000-0 -15680-4 0  9996,2 50846  53.2176 150.2669 0001526  83.4541 276.6625 15.08828727 85967,6917.915,95.438,540.836,538.724,0.0
50846.0,STARLINK-3308,PAYLOAD,2023-07-28 05:24:51,15.08830165,0.0001424,53.2172,148.4819,83.467,276.6484,-4.8338e-05,-1.057e-05,0.0,0 STARLINK-3308,1 50846U 22001AV  23209.22559793 -.00001057  00000-0 -48338-4 0  9991,2 50846  53.2172 148.4819 0001424  83.4670 276.6484 15.08830165 86029,6917.91,95.438,540.761,538.79,0.0
50846.0,STARLINK-3308,PAYLOAD,2023-07-28 19:43:19,15.0884664,0.0001229,53.2168,145.8063,81.586,278.5272,-3.6121e-05,-8.63e-06,0.0,0 STARLINK-3308,1 50846U 22001AV  23209.82174848 -.00000863  00000-0 -36121-4 0  9992,2 50846  53.2168 145.8063 0001229  81.5860 278.5272 15.08846640 87391,6917.86,95.437,540.575,538.875,0.0
50846.0,STARLINK-3308,PAYLOAD,2023-07-29 02:04:50,15.08853957,0.0001191,53.2167,144.617,80.6711,279.4416,2.8448e-05,1.65e-06,0.0,0 STARLINK-3308,1 50846U 22001AV  23210.08670050  .00000165  00000-0  28448-4 0  9994,2 50846  53.2167 144.6170 0001191  80.6711 279.4416 15.08853957 87433,6917.838,95.437,540.527,538.879,0.0
50846.0,STARLINK-3308,PAYLOAD,2023-07-29 19:34:06,15.08834704,0.000139,53.2166,141.3464,83.3182,276.7968,0.00016485,2.336e-05,0.0,0 STARLINK-3308,1 50846U 22001AV  23210.81534854  .00002336  00000-0  16485-3 0  9995,2 50846  53.2166 141.3464 0001390  83.3182 276.7968 15.08834704 87548,6917.897,95.438,540.723,538.8,0.0
50846.0,STARLINK-3308,PAYLOAD,2023-07-30 05:06:24,15.08844187,0.0001282,53.2175,139.5613,92.3003,267.8136,0.00019186,2.767e-05,0.0,0 STARLINK-3308,1 50846U 22001AV  23211.21278547  .00002767  00000-0  19186-3 0  9993,2 50846  53.2175 139.5613 0001282  92.3003 267.8136 15.08844187 87606,6917.868,95.437,540.619,538.846,0.0
50846.0,STARLINK-3308,PAYLOAD,2023-07-31 01:46:25,15.08844289,0.000127,53.2171,135.6957,81.6366,278.477,-1.1445e-05,-4.7e-06,0.0,0 STARLINK-3308,1 50846U 22001AV  23212.07390967 -.00000470  00000-0 -11445-4 0  9991,2 50846  53.2171 135.6957 0001270  81.6366 278.4770 15.08844289 87739,6917.867,95.437,540.611,538.854,0.0
50846.0,STARLINK-3308,PAYLOAD,2023-08-01 01:37:13,15.08839334,0.0001365,53.2183,131.2352,93.3493,266.7656,1.9317e-05,2e-07,0.0,0 STARLINK-3308,1 50846U 22001AV  23213.06751324  .00000020  00000-0  19317-4 0  9994,2 50846  53.2183 131.2352 0001365  93.3493 266.7656 15.08839334 87883,6917.882,95.438,540.692,538.803,0.0
50846.0,STARLINK-3308,PAYLOAD,2023-08-02 03:03:23,15.08839871,0.0001178,53.2178,126.478,89.7369,270.3758,7.3403e-05,8.81e-06,0.0,0 STARLINK-3308,1 50846U 22001AV  23214.12735464  .00000881  00000-0  73403-4 0  9990,2 50846  53.2178 126.4780 0001178  89.7369 270.3758 15.08839871 88040,6917.881,95.438,540.561,538.931,0.0
50846.0,STARLINK-3308,PAYLOAD,2023-08-03 04:29:33,15.08848358,0.0001313,53.2186,121.7194,89.0044,271.1099,0.00014857,2.078e-05,0.0,0 STARLINK-3308,1 50846U 22001AV  23215.18719019  .00002078  00000-0  14857-3 0  9992,2 50846  53.2186 121.7194 0001313  89.0044 271.1099 15.08848358 88205,6917.855,95.437,540.628,538.812,0.0
50846.0,STARLINK-3308,PAYLOAD,2023-08-04 02:44:58,15.08837147,9.41e-05,53.2174,117.5527,96.1814,263.9286,2.0499e-05,3.9e-07,0.0,0 STARLINK-3308,1 50846U 22001AV  23216.11456249  .00000039  00000-0  20499-4 0  9994,2 50846  53.2174 117.5527 0000941  96.1814 263.9286 15.08837147 88341,6917.889,95.438,540.405,539.103,0.0
50846.0,STARLINK-3308,PAYLOAD,2023-08-05 02:35:44,15.08849704,8.14e-05,53.2168,113.0932,99.0293,261.0791,4.0151e-05,3.52e-06,0.0,0 STARLINK-3308,1 50846U 22001AV  23217.10815400  .00000352  00000-0  40151-4 0  9997,2 50846  53.2168 113.0932 0000814  99.0293 261.0791 15.08849704 88495,6917.851,95.437,540.279,539.153,0.0
50846.0,STARLINK-3308,PAYLOAD,2023-08-06 10:23:26,15.08863481,8.58e-05,53.2149,107.1476,93.4974,266.6117,0.0003759,5.704e-05,0.0,0 STARLINK-3308,1 50846U 22001AV  23218.43294079  .00005704  00000-0  37590-3 0  9995,2 50846  53.2149 107.1476 0000858  93.4974 266.6117 15.08863481 88696,6917.809,95.436,540.267,539.08,0.0
50846.0,STARLINK-3308,PAYLOAD,2023-08-06 16:45:00,15.08833681,0.0001197,53.2147,105.9589,97.6622,262.4506,-0.00020423,-3.536e-05,0.0,0 STARLINK-3308,1 50846U 22001AV  23218.69791850 -.00003536  00000-0 -20423-3 0  9992,2 50846  53.2147 105.9589 0001197  97.6622 262.4506 15.08833681 88738,6917.9,95.438,540.593,538.937,0.0
50846.0,STARLINK-3308,PAYLOAD,2023-08-06 23:06:33,15.0882601,0.0001004,53.2158,104.7685,109.7314,250.3786,-0.00027701,-4.692e-05,0.0,0 STARLINK-3308,1 50846U 22001AV  23218.96288269 -.00004692  00000-0 -27701-3 0  9997,2 50846  53.2158 104.7685 0001004 109.7314 250.3786 15.08826010 88772,6917.923,95.438,540.483,539.094,0.0
50846.0,STARLINK-3308,PAYLOAD,2023-08-08 02:08:06,15.08849486,9.17e-05,53.2164,99.7151,106.6473,253.462,0.00035821,5.419e-05,0.0,0 STARLINK-3308,1 50846U 22001AV  23220.08895869  .00005419  00000-0  35821-3 0  9991,2 50846  53.2164  99.7151 0000917 106.6473 253.4620 15.08849486 88946,6917.851,95.437,540.351,539.082,0.0
50846.0,STARLINK-3308,PAYLOAD,2023-08-08 16:26:34,15.08840618,0.0001092,53.2165,97.0384,118.4049,241.7053,0.00038431,5.834e-05,0.0,0 STARLINK-3308,1 50846U 22001AV  23220.68512502  .00005834  00000-0  38431-3 0  9998,2 50846  53.2165  97.0384 0001092 118.4049 241.7053 15.08840618 89030,6917.878,95.438,540.499,538.988,0.0
50846.0,STARLINK-3308,PAYLOAD,2023-08-09 01:58:53,15.08855986,9.72e-05,53.2163,95.2552,111.2282,248.8814,0.00040835,6.22e-05,0.0,0 STARLINK-3308,1 50846U 22001AV  23221.08255908  .00006220  00000-0  40835-3 0  9998,2 50846  53.2163  95.2552 0000972 111.2282 248.8814 15.08855986 89094,6917.832,95.437,540.369,539.024,0.0
50846.0,STARLINK-3308,PAYLOAD,2023-08-09 08:20:25,15.08847628,0.0001019,53.2169,94.0642,93.8,266.3108,0.00010216,1.339e-05,0.0,0 STARLINK-3308,1 50846U 22001AV  23221.34751902  .00001339  00000-0  10216-3 0  9998,2 50846  53.2169  94.0642 0001019  93.8000 266.3108 15.08847628 89133,6917.857,95.437,540.427,539.017,0.0
50846.0,STARLINK-3308,PAYLOAD,2023-08-10 00:14:17,15.0884298,8.15e-05,53.2173,91.0926,99.8782,260.2302,-2.8241e-05,-7.37e-06,0.0,0 STARLINK-3308,1 50846U 22001AV  23222.00992124 -.00000737  00000-0 -28241-4 0  9996,2 50846  53.2173  91.0926 0000815  99.8782 260.2302 15.08842980 89232,6917.871,95.437,540.3,539.172,0.0
50846.0,STARLINK-3308,PAYLOAD,2023-08-11 23:55:51,15.08826838,7.94e-05,53.2166,82.1712,92.8902,267.2181,-0.00017467,-3.065e-05,0.0,0 STARLINK-3308,1 50846U 22001AV  23223.99712942 -.00003065  00000-0 -17467-3 0  9997,2 50846  53.2166  82.1712 0000794  92.8902 267.2181 15.08826838 89530,6917.921,95.438,540.335,539.236,0.0
50846.0,STARLINK-3308,PAYLOAD,2023-08-12 20:35:52,15.08842778,4.61e-05,53.2176,78.3055,108.0848,252.0195,0.00026268,3.896e-05,0.0,0 STARLINK-3308,1 50846U 22001AV  23224.85824995  .00003896  00000-0  26268-3 0  9994,2 50846  53.2176  78.3055 0000461 108.0848 252.0195 15.08842778 89660,6917.872,95.437,540.056,539.418,0.0
50846.0,STARLINK-3308,PAYLOAD,2023-08-13 18:51:16,15.08844614,0.0001154,53.2171,74.1436,109.9665,250.1452,0.0006257,9.685e-05,0.0,0 STARLINK-3308,1 50846U 22001AV  23225.78561180  .00009685  00000-0  62570-3 0  9999,2 50846  53.2171  74.1436 0001154 109.9665 250.1452 15.08844614 89801,6917.866,95.437,540.53,538.933,0.0
50846.0,STARLINK-3308,PAYLOAD,2023-08-14 23:28:12,15.08847283,9.91e-05,53.217,68.7901,87.0076,273.103,0.00015853,2.237e-05,0.0,0 STARLINK-3308,1 50846U 22001AV  23226.97792787  .00002237  00000-0  15853-3 0  9998,2 50846  53.2170  68.7901 0000991  87.0076 273.1030 15.08847283 89987,6917.858,95.437,540.409,539.038,0.0
50846.0,STARLINK-3308,PAYLOAD,2023-08-16 05:40:32,15.0884626,0.0001063,53.2169,63.1387,82.9036,277.2077,0.00013883,1.923e-05,0.0,0 STARLINK-3308,1 50846U 22001AV  23228.23648572  .00001923  00000-0  13883-3 0  9993,2 50846  53.2169  63.1387 0001063  82.9036 277.2077 15.08846260 90176,6917.861,95.437,540.462,538.991,0.0
50846.0,STARLINK-3308,PAYLOAD,2023-08-16 19:59:00,15.08841663,0.0001385,53.2166,60.4638,87.6884,272.4267,4.6208e-05,4.48e-06,0.0,0 STARLINK-3308,1 50846U 22001AV  23228.83264798  .00000448  00000-0  46208-4 0  9992,2 50846  53.2166  60.4638 0001385  87.6884 272.4267 15.08841663 90262,6917.875,95.437,540.698,538.782,0.0
50846.0,STARLINK-3308,PAYLOAD,2023-08-18 05:22:06,15.08846184,0.0001239,53.2174,54.2194,76.4397,283.6733,0.00020279,2.942e-05,0.0,0 STARLINK-3308,1 50846U 22001AV  23230.22368686  .00002942  00000-0  20279-3 0  9999,2 50846  53.2174  54.2194 0001239  76.4397 283.6733 15.08846184 90470,6917.861,95.437,540.584,538.869,0.0
50846.0,STARLINK-3308,PAYLOAD,2023-08-18 13:19:02,15.08830724,9.78e-05,53.2168,52.7328,77.2519,282.8582,-8.5015e-05,-1.64e-05,0.0,0 STARLINK-3308,1 50846U 22001AV  23230.55489142 -.00001640  00000-0 -85015-4 0  9992,2 50846  53.2168  52.7328 0000978  77.2519 282.8582 15.08830724 90521,6917.909,95.438,540.45,539.097,0.0
